{
    "links": {
        "self": "http://www.neowsapp.com/rest/v1/neo/3432646?api_key=iIulBulltgU6a56xZRHN4H3l9WmuAYTsLGpBGhQ2"
    },
    "id": "3432646",
    "neo_reference_id": "3432646",
    "name": "(2008 US)",
    "designation": "2008 US",
    "nasa_jpl_url": "http://ssd.jpl.nasa.gov/sbdb.cgi?sstr=3432646",
    "absolute_magnitude_h": 31.4,
    "estimated_diameter": {
        "kilometers": {
            "estimated_diameter_min": 0.0013949382,
            "estimated_diameter_max": 0.0031191767
        },
        "meters": {
            "estimated_diameter_min": 1.3949382293,
            "estimated_diameter_max": 3.1191767052
        },
        "miles": {
            "estimated_diameter_min": 0.0008667742,
            "estimated_diameter_max": 0.0019381659
        },
        "feet": {
            "estimated_diameter_min": 4.5765691404,
            "estimated_diameter_max": 10.2335197016
        }
    },
    "is_potentially_hazardous_asteroid": false,
    "close_approach_data": [
        {
            "close_approach_date": "2008-10-20",
            "close_approach_date_full": "2008-Oct-20 23:30",
            "epoch_date_close_approach": 1224545400000,
            "relative_velocity": {
                "kilometers_per_second": "19.1429469672",
                "kilometers_per_hour": "68914.6090817918",
                "miles_per_hour": "42820.85807085"
            },
            "miss_distance": {
                "astronomical": "0.0002198121",
                "lunar": "0.0855069069",
                "kilometers": "32883.421960227",
                "miles": "20432.8109240526"
            },
            "orbiting_body": "Earth"
        },
        {
            "close_approach_date": "2008-10-21",
            "close_approach_date_full": "2008-Oct-21 00:01",
            "epoch_date_close_approach": 1224547260000,
            "relative_velocity": {
                "kilometers_per_second": "19.9600555103",
                "kilometers_per_hour": "71856.1998371372",
                "miles_per_hour": "44648.6481710256"
            },
            "miss_distance": {
                "astronomical": "0.0023537184",
                "lunar": "0.9155964576",
                "kilometers": "352111.259219808",
                "miles": "218791.7909690304"
            },
            "orbiting_body": "Moon"
        }
    ],
    "orbital_data": {
        "orbit_id": "8",
        "orbit_determination_date": "2017-04-06 09:02:32",
        "first_observation_date": "2008-10-21",
        "last_observation_date": "2008-10-21",
        "data_arc_in_days": null,
        "observations_used": 15,
        "orbit_uncertainty": "9",
        "minimum_orbit_intersection": ".000191597",
        "jupiter_tisserand_invariant": "4.104",
        "epoch_osculation": "2454760.5",
        "eccentricity": ".6134458012885005",
        "semi_major_axis": "1.610950313724301",
        "inclination": "5.963107966296563",
        "ascending_node_longitude": "207.9248071882062",
        "orbital_period": "746.829811451015",
        "perihelion_distance": ".6227196076857359",
        "perihelion_argument": "90.76885333077126",
        "aphelion_distance": "2.599181019762865",
        "perihelion_time": "2454710.731660593076",
        "mean_anomaly": "23.99020755703698",
        "mean_motion": ".4820375331570607",
        "equinox": "J2000",
        "orbit_class": {
            "orbit_class_type": "APO",
            "orbit_class_description": "Near-Earth asteroid orbits which cross the Earth’s orbit similar to that of 1862 Apollo",
            "orbit_class_range": "a (semi-major axis) > 1.0 AU; q (perihelion) < 1.017 AU"
        }
    },
    "is_sentry_object": false
}